H1 CPF 01  gfz 2021 08 16 00  7281 terrasarx 
H2 0702601  6201 31698    2021 08 16 00 59 42 2021 08 21 00 00 42   120 1 1  0 0 0
H9
10 0 59445  75582.000000  0    2881017.585  -1732434.822  -6019858.936
10 0 59445  75702.000000  0    3366278.342  -2348056.854  -5540052.595
10 0 59445  75822.000000  0    3782621.572  -2930810.471  -4963399.235
10 0 59445  75942.000000  0    4123430.347  -3469265.469  -4299893.406
10 0 59445  76062.000000  0    4383576.434  -3952635.497  -3561065.537
10 0 59445  76182.000000  0    4559503.649  -4370996.704  -2759791.247
10 0 59445  76302.000000  0    4649282.210  -4715495.669  -1910072.522
10 0 59445  76422.000000  0    4652631.511  -4978541.374  -1026794.953
10 0 59445  76542.000000  0    4570909.179  -5153975.922   -125464.186
10 0 59445  76662.000000  0    4407066.642  -5237217.951    778071.981
10 0 59445  76782.000000  0    4165572.852  -5225376.184   1667910.200
10 0 59445  76902.000000  0    3852305.900  -5117328.107   2528381.160
10 0 59445  77022.000000  0    3474416.549  -4913763.426   3344333.035
10 0 59445  77142.000000  0    3040167.618  -4617190.909   4101405.410
10 0 59445  77262.000000  0    2558752.879  -4231907.604   4786286.241
10 0 59445  77382.000000  0    2040100.734  -3763932.380   5386947.406
10 0 59445  77502.000000  0    1494667.145  -3220906.014   5892854.705
10 0 59445  77622.000000  0     933222.103  -2611959.157   6295148.761
10 0 59445  77742.000000  0     366635.296  -1947553.306   6586793.755
10 0 59445  77862.000000  0    -194334.786  -1239297.439   6762693.600
10 0 59445  77982.000000  0    -739243.982   -499743.304   6819776.358
10 0 59445  78102.000000  0   -1258155.787    257838.152   6757044.508
10 0 59445  78222.000000  0   -1741821.960   1019694.514   6575591.113
10 0 59445  78342.000000  0   -2181846.960   1771840.647   6278581.881
10 0 59445  78462.000000  0   -2570834.373   2500314.555   5871203.474
10 0 59445  78582.000000  0   -2902512.478   3191437.124   5360578.698
10 0 59445  78702.000000  0   -3171838.127   3832071.176   4755648.682
10 0 59445  78822.000000  0   -3375076.530   4409875.643   4067022.269
10 0 59445  78942.000000  0   -3509854.564   4913549.576   3306794.137
10 0 59445  79062.000000  0   -3575186.327   5333060.530   2488333.627
10 0 59445  79182.000000  0   -3571470.061   5659850.899   1626047.542
10 0 59445  79302.000000  0   -3500456.268   5887016.781    735122.682
10 0 59445  79422.000000  0   -3365188.667   6009457.855   -168747.289
10 0 59445  79542.000000  0   -3169917.953   6023991.629  -1069647.855
10 0 59445  79662.000000  0   -2919991.005   5929427.904  -1951734.477
10 0 59445  79782.000000  0   -2621716.153   5726600.843  -2799521.165
10 0 59445  79902.000000  0   -2282210.662   5418360.200  -3598156.126
10 0 59445  80022.000000  0   -1909236.262   5009524.425  -4333684.000
10 0 59445  80142.000000  0   -1511024.741   4506793.865  -4993287.397
10 0 59445  80262.000000  0   -1096099.816   3918630.824  -5565503.460
10 0 59445  80382.000000  0    -673097.755   3255108.635  -6040415.473
10 0 59445  80502.000000  0    -250590.278   2527731.127  -6409815.160
10 0 59445  80622.000000  0     163085.596   1749228.248  -6667332.256
10 0 59445  80742.000000  0     559987.135    933333.190  -6808534.092
10 0 59445  80862.000000  0     932714.366     94542.583  -6830994.181
10 0 59445  80982.000000  0    1274544.528   -752136.647  -6734329.055
10 0 59445  81102.000000  0    1579549.804  -1591449.694  -6520202.481
10 0 59445  81222.000000  0    1842697.762  -2408161.007  -6192299.807
10 0 59445  81342.000000  0    2059933.986  -3187324.455  -5756272.364
10 0 59445  81462.000000  0    2228244.980  -3914555.044  -5219651.495
10 0 59445  81582.000000  0    2345700.296  -4576296.165  -4591728.052
10 0 59445  81702.000000  0    2411472.504  -5160074.301  -3883401.724
10 0 59445  81822.000000  0    2425834.901  -5654740.480  -3107002.347
10 0 59445  81942.000000  0    2390136.708  -6050692.730  -2276082.476
10 0 59445  82062.000000  0    2306755.926  -6340073.682  -1405184.690
10 0 59445  82182.000000  0    2179029.577  -6516937.858   -509586.403
10 0 59445  82302.000000  0    2011164.351  -6577381.384    394974.022
10 0 59445  82422.000000  0    1808127.111  -6519631.781   1292579.892
10 0 59445  82542.000000  0    1575521.276  -6344097.508   2167425.403
10 0 59445  82662.000000  0    1319448.490  -6053370.161   3004104.145
10 0 59445  82782.000000  0    1046361.653  -5652183.500   3787887.294
10 0 59445  82902.000000  0     762912.668  -5147329.903   4504987.947
10 0 59445  83022.000000  0     475798.585  -4547537.613   5142805.913
10 0 59445  83142.000000  0     191609.347  -3863310.347   5690149.509
10 0 59445  83262.000000  0     -83317.484  -3106732.934   6137429.126
10 0 59445  83382.000000  0    -343033.132  -2291248.940   6476818.939
10 0 59445  83502.000000  0    -582102.399  -1431417.316   6702386.509
10 0 59445  83622.000000  0    -795714.266   -542650.594   6810191.408
10 0 59445  83742.000000  0    -979776.897    359062.735   6798350.829
10 0 59445  83862.000000  0   -1130995.375   1257446.021   6667070.334
10 0 59445  83982.000000  0   -1246930.237   2136227.586   6418640.247
10 0 59445  84102.000000  0   -1326036.749   2979434.904   6057398.366
10 0 59445  84222.000000  0   -1367684.679   3771685.816   5589658.835
10 0 59445  84342.000000  0   -1372157.173   4498471.788   5023607.557
10 0 59445  84462.000000  0   -1340629.593   5146429.392   4369165.683
10 0 59445  84582.000000  0   -1275128.391   5703594.155   3637819.885
10 0 59445  84702.000000  0   -1178470.572   6159629.679   2842423.886
10 0 59445  84822.000000  0   -1054187.192   6506030.670   1996973.370
10 0 59445  84942.000000  0    -906427.552   6736291.284   1116355.170
10 0 59445  85062.000000  0    -739849.510   6846033.692    216079.331
10 0 59445  85182.000000  0    -559498.347   6833096.107   -688001.251
10 0 59445  85302.000000  0    -370676.963   6697576.442  -1579980.338
10 0 59445  85422.000000  0    -178811.373   6441827.089  -2444188.201
10 0 59445  85542.000000  0      10684.351   6070404.545  -3265472.339
10 0 59445  85662.000000  0     192540.987   5589977.831  -4029465.864
10 0 59445  85782.000000  0     361762.465   5009196.827  -4722838.832
10 0 59445  85902.000000  0     513746.003   4338524.135  -5333527.124
10 0 59445  86022.000000  0     644391.401   3590035.554  -5850935.366
10 0 59445  86142.000000  0     750196.537   2777193.496  -6266111.316
10 0 59445  86262.000000  0     828337.792   1914599.099  -6571889.277
10 0 59445  86382.000000  0     876734.343   1017729.063  -6763002.146
10 0 59446    102.000000  0     894094.769    102660.476  -6836163.181
10 0 59446    222.000000  0     879946.086   -814212.647  -6790116.416
10 0 59446    342.000000  0     834643.997  -1716466.666  -6625654.296
10 0 59446    462.000000  0     759365.195  -2587933.698  -6345604.632
10 0 59446    582.000000  0     656081.829  -3412984.730  -5954789.720
10 0 59446    702.000000  0     527516.930  -4176808.396  -5459952.255
10 0 59446    822.000000  0     377083.334  -4865676.625  -4869648.732
10 0 59446    942.000000  0     208806.059  -5467195.292  -4194113.397
10 0 59446   1062.000000  0      27228.974  -5970535.563  -3445091.282
10 0 59446   1182.000000  0    -162692.060  -6366639.308  -2635641.763
10 0 59446   1302.000000  0    -355707.544  -6648394.784  -1779916.440
10 0 59446   1422.000000  0    -546401.690  -6810777.926   -892912.347
10 0 59446   1542.000000  0    -729325.630  -6850953.051      9794.281
10 0 59446   1662.000000  0    -899133.217  -6768330.591    912327.278
10 0 59446   1782.000000  0   -1050716.271  -6564580.894   1798797.371
10 0 59446   1902.000000  0   -1179335.512  -6243602.221   2653591.355
10 0 59446   2022.000000  0   -1280743.449  -5811443.302   3461656.163
10 0 59446   2142.000000  0   -1351295.408  -5276182.182   4208771.327
10 0 59446   2262.000000  0   -1388047.013  -4647765.389   4881801.920
10 0 59446   2382.000000  0   -1388835.808  -3937814.563   5468930.016
10 0 59446   2502.000000  0   -1352345.354  -3159401.868   5959861.752
10 0 59446   2622.000000  0   -1278149.322  -2326799.249   6346002.827
10 0 59446   2742.000000  0   -1166735.017  -1455211.355   6620601.522
10 0 59446   2862.000000  0   -1019507.636   -560495.360   6778861.311
10 0 59446   2982.000000  0    -838775.155    341129.314   6818019.483
10 0 59446   3102.000000  0    -627712.628   1233374.428   6737392.454
10 0 59446   3222.000000  0    -390306.091   2100176.792   6538387.306
10 0 59446   3342.000000  0    -131277.568   2925987.122   6224478.609
10 0 59446   3462.000000  0     144007.296   3696049.250   5801151.575
10 0 59446   3582.000000  0     429647.231   4396666.650   5275811.631
10 0 59446   3702.000000  0     719328.252   5015450.753   4657661.151
10 0 59446   3822.000000  0    1006459.123   5541547.862   3957543.272
10 0 59446   3942.000000  0    1284314.302   5965836.492   3187755.698
10 0 59446   4062.000000  0    1546186.924   6281098.514   2361839.433
10 0 59446   4182.000000  0    1785543.569   6482151.708   1494334.539
10 0 59446   4302.000000  0    1996177.122   6565941.137    600519.028
10 0 59446   4422.000000  0    2172355.612   6531587.384   -303868.130
10 0 59446   4542.000000  0    2308961.625   6380391.468  -1202911.965
10 0 59446   4662.000000  0    2401619.857   6115796.637  -2080809.418
10 0 59446   4782.000000  0    2446809.674   5743307.882  -2922154.188
10 0 59446   4902.000000  0    2441959.557   5270370.903  -3712212.819
10 0 59446   5022.000000  0    2385520.956   4706212.931  -4437185.183
10 0 59446   5142.000000  0    2277019.603   4061651.612  -5084443.159
10 0 59446   5262.000000  0    2117084.317   3348877.824  -5642744.165
10 0 59446   5382.000000  0    1907453.314   2581217.886  -6102417.796
10 0 59446   5502.000000  0    1650957.462   1772879.199  -6455522.579
10 0 59446   5622.000000  0    1351482.331    938686.415  -6695971.034
99
